start=new Date('2022-06-03T00:00:00.000Z').valueOf();
sats=[{"CENTER_NAME":"EARTH","EPOCH":"2022-06-02T17:58:54.275520","MEAN_ANOMALY":"326.5850","ECCENTRICITY":"0.00025250","OBJECT_ID":"2021-104AJ","REF_FRAME":"TEME","RA_OF_ASC_NODE":"265.9716","OBJECT_NAME":"STARLINK-3105","TLE_LINE2":"2 49440  53.2184 265.9716 0002525  33.5301 326.5850 15.08836583 31191","NORAD_CAT_ID":"49440","PERIAPSIS":"538.009","CLASSIFICATION_TYPE":"U","LAUNCH_DATE":"2021-11-13","RCS_SIZE":"LARGE","SEMIMAJOR_AXIS":"6917.891","APOAPSIS":"541.503","MEAN_MOTION_DDOT":"0.0000000000000","DECAY_DATE":null,"OBJECT_TYPE":"PAYLOAD","MEAN_ELEMENT_THEORY":"SGP4","ARG_OF_PERICENTER":"33.5301","TIME_SYSTEM":"UTC","ELEMENT_SET_NO":"999","EPHEMERIS_TYPE":"0","SITE":"AFETR","FILE":"3477983","REV_AT_EPOCH":"3119","MEAN_MOTION":"15.08836583","BSTAR":"0.00007204900000","GP_ID":"205213506","INCLINATION":"53.2184","TLE_LINE1":"1 49440U 21104AJ  22153.74923930  .00000858  00000-0  72049-4 0  9996","MEAN_MOTION_DOT":"0.00000858","COUNTRY_CODE":"US","PERIOD":"95.438"},{"LAUNCH_DATE":"2021-11-13","RCS_SIZE":"LARGE","SEMIMAJOR_AXIS":"6917.908","CLASSIFICATION_TYPE":"U","APOAPSIS":"541.351","PERIAPSIS":"538.194","TIME_SYSTEM":"UTC","ARG_OF_PERICENTER":"34.9174","MEAN_ELEMENT_THEORY":"SGP4","OBJECT_TYPE":"PAYLOAD","DECAY_DATE":null,"MEAN_MOTION_DDOT":"0.0000000000000","MEAN_ANOMALY":"325.1967","ECCENTRICITY":"0.00022820","EPOCH":"2022-06-02T17:32:24.921600","CENTER_NAME":"EARTH","NORAD_CAT_ID":"49441","TLE_LINE2":"2 49441  53.2195 266.0374 0002282  34.9174 325.1967 15.08831093 32274","OBJECT_ID":"2021-104AK","REF_FRAME":"TEME","RA_OF_ASC_NODE":"266.0374","OBJECT_NAME":"STARLINK-3128","MEAN_MOTION":"15.08831093","BSTAR":"-0.00002653000000","GP_ID":"205188455","MEAN_MOTION_DOT":"-0.00000710","PERIOD":"95.438","COUNTRY_CODE":"US","INCLINATION":"53.2195","TLE_LINE1":"1 49441U 21104AK  22153.73084400 -.00000710  00000-0 -26530-4 0  9999","SITE":"AFETR","EPHEMERIS_TYPE":"0","FILE":"3477909","ELEMENT_SET_NO":"999","REV_AT_EPOCH":"3227"},{"MEAN_MOTION_DOT":"0.00009201","COUNTRY_CODE":"US","PERIOD":"95.438","INCLINATION":"53.2162","TLE_LINE1":"1 49442U 21104AL  22152.83334491  .00009201  00000-0  59545-3 0  9991","MEAN_MOTION":"15.08838888","GP_ID":"205188438","BSTAR":"0.00059545000000","REV_AT_EPOCH":"3214","SITE":"AFETR","EPHEMERIS_TYPE":"0","FILE":"3477908","ELEMENT_SET_NO":"999","TIME_SYSTEM":"UTC","DECAY_DATE":null,"OBJECT_TYPE":"PAYLOAD","MEAN_MOTION_DDOT":"0.0000000000000","ARG_OF_PERICENTER":"28.0638","MEAN_ELEMENT_THEORY":"SGP4","RCS_SIZE":"LARGE","LAUNCH_DATE":"2021-11-13","SEMIMAJOR_AXIS":"6917.884","CLASSIFICATION_TYPE":"U","APOAPSIS":"541.437","PERIAPSIS":"538.061","NORAD_CAT_ID":"49442","TLE_LINE2":"2 49442  53.2162 270.0788 0002440  28.0638  54.3895 15.08838888 32144","REF_FRAME":"TEME","OBJECT_ID":"2021-104AL","OBJECT_NAME":"STARLINK-3098","RA_OF_ASC_NODE":"270.0788","MEAN_ANOMALY":"54.3895","ECCENTRICITY":"0.00024400","CENTER_NAME":"EARTH","EPOCH":"2022-06-01T20:00:01.000224"},{"TIME_SYSTEM":"UTC","DECAY_DATE":null,"OBJECT_TYPE":"PAYLOAD","MEAN_MOTION_DDOT":"0.0000000000000","ARG_OF_PERICENTER":"28.6400","MEAN_ELEMENT_THEORY":"SGP4","LAUNCH_DATE":"2021-11-13","SEMIMAJOR_AXIS":"6917.893","RCS_SIZE":"LARGE","CLASSIFICATION_TYPE":"U","APOAPSIS":"541.483","PERIAPSIS":"538.033","NORAD_CAT_ID":"49443","TLE_LINE2":"2 49443  53.2187 270.0712 0002493  28.6400 153.8291 15.08835903 32139","OBJECT_ID":"2021-104AM","REF_FRAME":"TEME","RA_OF_ASC_NODE":"270.0712","OBJECT_NAME":"STARLINK-3136","ECCENTRICITY":"0.00024930","MEAN_ANOMALY":"153.8291","CENTER_NAME":"EARTH","EPOCH":"2022-06-01T20:00:01.000224","MEAN_MOTION_DOT":"0.00013219","COUNTRY_CODE":"US","PERIOD":"95.438","INCLINATION":"53.2187","TLE_LINE1":"1 49443U 21104AM  22152.83334491  .00013219  00000-0  84717-3 0  9995","MEAN_MOTION":"15.08835903","GP_ID":"205140499","BSTAR":"0.00084717000000","REV_AT_EPOCH":"3213","SITE":"AFETR","EPHEMERIS_TYPE":"0","FILE":"3476788","ELEMENT_SET_NO":"999"},{"PERIAPSIS":"538.035","LAUNCH_DATE":"2021-11-13","RCS_SIZE":"LARGE","SEMIMAJOR_AXIS":"6917.926","CLASSIFICATION_TYPE":"U","APOAPSIS":"541.548","ARG_OF_PERICENTER":"36.9468","MEAN_ELEMENT_THEORY":"SGP4","DECAY_DATE":null,"MEAN_MOTION_DDOT":"0.0000000000000","OBJECT_TYPE":"PAYLOAD","TIME_SYSTEM":"UTC","EPOCH":"2022-06-02T17:48:18.533088","CENTER_NAME":"EARTH","MEAN_ANOMALY":"323.1698","ECCENTRICITY":"0.00025390","OBJECT_ID":"2021-104AN","REF_FRAME":"TEME","OBJECT_NAME":"STARLINK-3126","RA_OF_ASC_NODE":"265.9959","NORAD_CAT_ID":"49444","TLE_LINE2":"2 49444  53.2183 265.9959 0002539  36.9468 323.1698 15.08824965 31193","MEAN_MOTION":"15.08824965","GP_ID":"205214007","BSTAR":"-0.00005051700000","INCLINATION":"53.2183","TLE_LINE1":"1 49444U 21104AN  22153.74188117 -.00001092  00000-0 -50517-4 0  9999","MEAN_MOTION_DOT":"-0.00001092","PERIOD":"95.439","COUNTRY_CODE":"US","ELEMENT_SET_NO":"999","SITE":"AFETR","EPHEMERIS_TYPE":"0","FILE":"3477983","REV_AT_EPOCH":"3119"},{"ECCENTRICITY":"0.00026900","MEAN_ANOMALY":"2.6695","EPOCH":"2022-06-01T20:00:01.000224","CENTER_NAME":"EARTH","NORAD_CAT_ID":"49445","TLE_LINE2":"2 49445  53.2174 280.0806 0002690  24.8205   2.6695 15.08823856  1300","OBJECT_NAME":"STARLINK-3122","RA_OF_ASC_NODE":"280.0806","REF_FRAME":"TEME","OBJECT_ID":"2021-104AP","APOAPSIS":"541.656","SEMIMAJOR_AXIS":"6917.930","LAUNCH_DATE":"2021-11-13","RCS_SIZE":"LARGE","CLASSIFICATION_TYPE":"U","PERIAPSIS":"537.934","TIME_SYSTEM":"UTC","MEAN_ELEMENT_THEORY":"SGP4","ARG_OF_PERICENTER":"24.8205","MEAN_MOTION_DDOT":"0.0000000000000","DECAY_DATE":null,"OBJECT_TYPE":"PAYLOAD","FILE":"3476255","EPHEMERIS_TYPE":"0","SITE":"AFETR","ELEMENT_SET_NO":"999","REV_AT_EPOCH":"130","BSTAR":"0.00117480000000","GP_ID":"205126994","MEAN_MOTION":"15.08823856","PERIOD":"95.439","COUNTRY_CODE":"US","MEAN_MOTION_DOT":"0.00018451","TLE_LINE1":"1 49445U 21104AP  22152.83334491  .00018451  00000-0  11748-2 0  9993","INCLINATION":"53.2174"},{"GP_ID":"205125766","BSTAR":"0.00101320000000","MEAN_MOTION":"15.08825229","TLE_LINE1":"1 49446U 21104AQ  22152.83334491  .00015868  00000-0  10132-2 0  9999","INCLINATION":"53.2175","PERIOD":"95.438","COUNTRY_CODE":"US","MEAN_MOTION_DOT":"0.00015868","ELEMENT_SET_NO":"999","FILE":"3476255","SITE":"AFETR","EPHEMERIS_TYPE":"0","REV_AT_EPOCH":"130","PERIAPSIS":"537.876","APOAPSIS":"541.705","LAUNCH_DATE":"2021-11-13","CLASSIFICATION_TYPE":"U","RCS_SIZE":"LARGE","SEMIMAJOR_AXIS":"6917.926","ARG_OF_PERICENTER":"24.2160","MEAN_ELEMENT_THEORY":"SGP4","DECAY_DATE":null,"MEAN_MOTION_DDOT":"0.0000000000000","OBJECT_TYPE":"PAYLOAD","TIME_SYSTEM":"UTC","EPOCH":"2022-06-01T20:00:01.000224","CENTER_NAME":"EARTH","ECCENTRICITY":"0.00027680","MEAN_ANOMALY":"98.2939","RA_OF_ASC_NODE":"270.0737","OBJECT_NAME":"STARLINK-3099","REF_FRAME":"TEME","OBJECT_ID":"2021-104AQ","TLE_LINE2":"2 49446  53.2175 270.0737 0002768  24.2160  98.2939 15.08825229  1302","NORAD_CAT_ID":"49446"},{"OBJECT_NAME":"STARLINK-3115","RA_OF_ASC_NODE":"275.9774","REF_FRAME":"TEME","OBJECT_ID":"2021-104AR","NORAD_CAT_ID":"49447","TLE_LINE2":"2 49447  53.2180 275.9774 0002637  29.5975 330.5166 15.08841101 31057","EPOCH":"2022-06-02T17:57:34.454016","CENTER_NAME":"EARTH","ECCENTRICITY":"0.00026370","MEAN_ANOMALY":"330.5166","ARG_OF_PERICENTER":"29.5975","MEAN_ELEMENT_THEORY":"SGP4","DECAY_DATE":null,"MEAN_MOTION_DDOT":"0.0000000000000","OBJECT_TYPE":"PAYLOAD","TIME_SYSTEM":"UTC","PERIAPSIS":"537.918","APOAPSIS":"541.566","LAUNCH_DATE":"2021-11-13","CLASSIFICATION_TYPE":"U","RCS_SIZE":"LARGE","SEMIMAJOR_AXIS":"6917.877","REV_AT_EPOCH":"3105","ELEMENT_SET_NO":"999","FILE":"3477983","EPHEMERIS_TYPE":"0","SITE":"AFETR","TLE_LINE1":"1 49447U 21104AR  22153.74831544 -.00000993  00000-0 -44237-4 0  9992","INCLINATION":"53.2180","PERIOD":"95.437","COUNTRY_CODE":"US","MEAN_MOTION_DOT":"-0.00000993","BSTAR":"-0.00004423700000","GP_ID":"205212755","MEAN_MOTION":"15.08841101"},{"BSTAR":"-0.00003531800000","GP_ID":"205188480","MEAN_MOTION":"15.08836989","COUNTRY_CODE":"US","PERIOD":"95.438","MEAN_MOTION_DOT":"-0.00000850","TLE_LINE1":"1 49448U 21104AS  22153.75935800 -.00000850  00000-0 -35318-4 0  9996","INCLINATION":"53.2179","FILE":"3477911","EPHEMERIS_TYPE":"0","SITE":"AFETR","ELEMENT_SET_NO":"999","REV_AT_EPOCH":"3212","APOAPSIS":"541.379","RCS_SIZE":"LARGE","LAUNCH_DATE":"2021-11-13","CLASSIFICATION_TYPE":"U","SEMIMAJOR_AXIS":"6917.890","PERIAPSIS":"538.130","TIME_SYSTEM":"UTC","DECAY_DATE":null,"MEAN_MOTION_DDOT":"0.0000000000000","OBJECT_TYPE":"PAYLOAD","ARG_OF_PERICENTER":"32.4530","MEAN_ELEMENT_THEORY":"SGP4","MEAN_ANOMALY":"327.6606","ECCENTRICITY":"0.00023480","CENTER_NAME":"EARTH","EPOCH":"2022-06-02T18:13:28.531200","TLE_LINE2":"2 49448  53.2179 275.9225 0002348  32.4530 327.6606 15.08836989 32129","NORAD_CAT_ID":"49448","RA_OF_ASC_NODE":"275.9225","OBJECT_NAME":"STARLINK-3097","OBJECT_ID":"2021-104AS","REF_FRAME":"TEME"},{"MEAN_MOTION":"15.08842376","GP_ID":"205213756","BSTAR":"0.00001455100000","INCLINATION":"53.2194","TLE_LINE1":"1 49449U 21104AT  22153.74463286 -.00000057  00000-0  14551-4 0  9994","MEAN_MOTION_DOT":"-0.00000057","PERIOD":"95.437","COUNTRY_CODE":"US","ELEMENT_SET_NO":"999","EPHEMERIS_TYPE":"0","SITE":"AFETR","FILE":"3477983","REV_AT_EPOCH":"3105","PERIAPSIS":"538.031","LAUNCH_DATE":"2021-11-13","RCS_SIZE":"LARGE","SEMIMAJOR_AXIS":"6917.873","CLASSIFICATION_TYPE":"U","APOAPSIS":"541.445","ARG_OF_PERICENTER":"39.6536","MEAN_ELEMENT_THEORY":"SGP4","OBJECT_TYPE":"PAYLOAD","DECAY_DATE":null,"MEAN_MOTION_DDOT":"0.0000000000000","TIME_SYSTEM":"UTC","EPOCH":"2022-06-02T17:52:16.279104","CENTER_NAME":"EARTH","ECCENTRICITY":"0.00024680","MEAN_ANOMALY":"320.4637","OBJECT_ID":"2021-104AT","REF_FRAME":"TEME","OBJECT_NAME":"STARLINK-3137","RA_OF_ASC_NODE":"275.9769","TLE_LINE2":"2 49449  53.2194 275.9769 0002468  39.6536 320.4637 15.08842376 31051","NORAD_CAT_ID":"49449"}];
